#aV2010  6 16  0  0   .00000000      96 DD+AD WGS84 FIT  NGA
## 1588 259200.00000000   900.00000000 55363  .0000000000000
+   31     1  2  3  4  5  6  7  8  9 10 11 12 13 14 15 16 17
+         18 19 20 21 22 23 24 26 27 28 29 30 31 32  0  0  0
+          0  0  0  0  0  0  0  0  0  0  0  0  0  0  0  0  0
+          0  0  0  0  0  0  0  0  0  0  0  0  0  0  0  0  0
+          0  0  0  0  0  0  0  0  0  0  0  0  0  0  0  0  0
++         0  0  0  0  0  0  0  0  0  0  0  0  0  0  0  0  0
++         0  0  0  0  0  0  0  0  0  0  0  0  0  0  0  0  0
++         0  0  0  0  0  0  0  0  0  0  0  0  0  0  0  0  0
++         0  0  0  0  0  0  0  0  0  0  0  0  0  0  0  0  0
++         0  0  0  0  0  0  0  0  0  0  0  0  0  0  0  0  0
%c cc cc ccc ccc cccc cccc cccc cccc ccccc ccccc ccccc ccccc
%c cc cc ccc ccc cccc cccc cccc cccc ccccc ccccc ccccc ccccc
%f  0.0000000  0.000000000  0.00000000000  0.000000000000000
%f  0.0000000  0.000000000  0.00000000000  0.000000000000000
%i    0    0    0    0      0      0      0      0         0
%i    0    0    0    0      0      0      0      0         0
/*      NGA, ST. LOUIS,MO.                                  
/*   EPHEMERIS COMPUTED FROM  3 DAYS OF DATA                
/* CCCCCCCCCCCCCCCCCCCCCCCCCCCCCCCCCCCCCCCCCCCCCCCCCCCCCCCCC
/* CCCCCCCCCCCCCCCCCCCCCCCCCCCCCCCCCCCCCCCCCCCCCCCCCCCCCCCCC
*  2010  6 16  5 15   .00000000                                                 
P  1  -6721.306525  25419.346019   3114.077682   -131.185159                    
V  1  -2010.774504  -4535.074068  31618.744363      -.039963                    
P  2  -9971.389873 -20893.845110  13399.245847    265.006405                    
V  2  14596.647416   8885.640182  24226.515847       .032782                    
P  3   5486.973560  15219.018990 -21415.625597    568.978400                    
V  3 -23882.681816  11488.257860   2428.513602       .051445                    
P  4   4530.200984 -15911.820723  20540.292059    104.884762                    
V  4  20985.969142  16430.054876   8388.797869       .081402                    
P  5  -3504.064513 -23918.999469 -10922.494570     -7.575536                    
V  5   4974.122167 -13209.023702  27450.989142      -.021674                    
P  6   -328.294548  16573.577619 -20545.248742    606.261730                    
V  6 -24983.142023   9268.883124   7961.068996      -.128135                    
P  7  19709.902281    799.099338 -17881.427937     -1.240598                    
V  7  16290.497962  15701.538971  18501.317361      -.001948                    
P  8  11428.574455  -9080.952508 -22222.952536      5.777760                    
V  8  20111.079593  19585.680105   1826.194026       .001919                    
P  9 -21092.582752 -16101.670786    986.143128     12.802619                    
V  9   -130.200797  -2892.188005 -32137.020745       .021013                    
P 10   4377.302202 -25976.057995  -1342.943303    -44.722940                    
V 10   3581.295893   -797.995028  31759.000561      -.008814                    
P 11  24727.290355   9609.618995   3200.050468    -69.335132                    
V 11   1776.815505   6190.780887 -29474.267951      -.024464                    
P 12 -12956.085869  -9452.903415  21243.708219   -103.657449                    
V 12   5631.365042 -26213.947747  -8095.317290       .041458                    
P 13  25856.978500  -4481.127581   4089.752776    303.209229                    
V 13  -4676.781682   3132.594530  31867.626787      -.004905                    
P 14 -17145.518406  14821.295682  13877.238293     57.541320                    
V 14 -17114.542809   3510.873247 -25271.736082       .042015                    
P 15 -14665.565033  -9620.536148 -19966.973985   -255.458705                    
V 15  23346.968937  -9993.705929 -12207.085209       .065573                    
P 16  -1166.446434  25659.942066  -6113.743237    -81.899480                    
V 16  -4155.311973   7158.256945  30918.711767      -.036613                    
P 17  18318.300107 -14927.002538  12017.634326    156.879966                    
V 17  15192.728193  -2398.658462 -26575.457900       .020672                    
P 18 -15847.894169  10014.431481 -18393.592331     74.941536                    
V 18   2851.748455 -24054.299020 -15706.588908       .024088                    
P 19  15175.886781  10043.908713 -19421.781991    -42.597874                    
V 19 -23475.615776   7562.663424 -14100.215795      -.027830                    
P 20  14542.493953   6944.051924  20983.342647     54.590056                    
V 20  -4627.892613  26648.434054  -5526.678156      -.004840                    
P 21 -18337.055885   2629.729958 -18903.123690    -67.423612                    
V 21 -17625.318851 -17266.708867  13808.119505      -.025947                    
P 22 -12181.176203  21122.971339 -10251.803158    169.623280                    
V 22   -476.623056 -13730.595355 -27380.456033      -.008921                    
P 23  23434.671911   1130.976996  12731.113321    366.819605                    
V 23 -14557.972731   7067.208303  25800.055744      -.014830                    
P 24  -5179.425841  15627.033091 -20817.507649    296.579212                    
V 24 -19850.562936 -17715.402951  -8084.267688       .031680                    
P 26 -16771.294903  -8499.116510 -19461.931004    -66.836691                    
V 26  22304.776912  -6950.683792 -16252.364818      -.055950                    
P 27 -20601.910759 -16790.108202  -1261.870196    161.446023                    
V 27   3229.747417   -244.487980 -31984.142815       .034364                    
P 28  12813.273758 -19300.490718 -12248.381830    -13.404225                    
V 28  -1164.697235  16541.141969 -26547.806964       .011504                    
P 29 -25667.266100   4512.212005   5105.577778    127.733292                    
V 29   5215.440260  -4598.447546  30887.124370       .027987                    
P 30 -15398.052865   3761.807339  20906.829437    252.253200                    
V 30   3030.579136 -27341.907251   7070.404985       .034426                    
P 31  -1598.297509  16913.272953  20574.482032    -30.551189                    
V 31 -20083.781908 -16006.300647  11885.497858       .023661                    
P 32   9877.140203  15690.220233  19481.515437    -16.716971                    
V 32  -7325.809646  22785.373086 -14560.667754      -.084260                    
EOF
